HST                     
1 20580U 90037B   23116.67334358  .00004643  00000+0  24681-3 0  9996
2 20580  28.4689 250.6689 0002505 170.2472 211.1767 15.12867537613656
POLAR                   
1 23802U 96013A   23116.47401394  .00000199  00000+0  00000+0 0  9996
2 23802  78.8759 238.5921 5764688 248.1174  43.0482  1.29847045129959
SWAS                    
1 25560U 98071A   23116.68553989  .00003152  00000+0  28414-3 0  9991
2 25560  69.8986 276.1490 0009563 223.0510 136.9900 14.96589963324851
CXO                     
1 25867U 99040B   23120.36200414  .00000947  00000+0  00000+0 0  9996
2 25867  38.0806 202.9706 9046409 257.4040 359.8505  0.37817006 24154
XMM-NEWTON              
1 25989U 99066A   23118.61654697 -.00000022  00000+0  00000+0 0  9995
2 25989  69.2361 299.2271 5614369  83.0623 359.9292  0.50131166 17257
TERRA                   
1 25994U 99068A   23117.53057778  .00000726  00000+0  16356-3 0  9995
2 25994  98.0969 187.1625 0001230 170.9549 301.6091 14.59188871242395
CLUSTER II-FM7 (SAMBA)  
1 26410U 00041A   23118.22604580  .00000135  00000+0  00000+0 0  9997
2 26410 135.8280 351.2838 6403207 204.9820   0.5968  0.44208584 26965
CLUSTER II-FM6 (SALSA)  
1 26411U 00041B   23115.95725291  .00000061  00000+0  00000+0 0  9996
2 26411 140.1863 358.5398 8090334 212.2501   0.7630  0.44222154 26266
CLUSTER II-FM5 (RUMBA)  
1 26463U 00045A   23118.23123078  .00000210  00000+0  00000+0 0  9992
2 26463 143.4181 358.6229 7591523 213.0843   0.5970  0.44217927 27548
CLUSTER II-FM8 (TANGO)  
1 26464U 00045B   23118.22584250  .00000135  00000+0  00000+0 0  9991
2 26464 135.8219 351.2776 6400422 204.9771   0.6164  0.44222101 62889
ODIN                    
1 26702U 01007A   23117.48217518  .00005897  00000+0  33144-3 0  9991
2 26702  97.5077 131.8756 0008061 287.8800  72.1552 15.13644431214318
TIMED                   
1 26998U 01055B   23116.87219856  .00001895  00000+0  20228-3 0  9993
2 26998  74.0745  14.9120 0001931 211.2480 148.8587 14.89607536159658
INTEGRAL                
1 27540U 02048A   23116.51816992  .00000181  00000+0  00000+0 0  9994
2 27540  82.9292  41.4765 8789199 292.8075  32.1476  0.37572666 22327
CORIOLIS                
1 27640U 03001A   23117.46418388  .00000169  00000+0  10151-3 0  9995
2 27640  98.7168 126.3838 0012965 274.7083  85.2612 14.19248485 51483
SORCE                   
1 27651U 03004A   23117.50437035  .00003490  00000+0  35334-3 0  9995
2 27651  39.9937 262.2351 0019964 166.3708 193.7624 14.91695726 99969
MOST                    
1 27843U 03031D   23116.82195218  .00000154  00000+0  91738-4 0  9991
2 27843  98.7086 124.8355 0009343 330.1667  29.8977 14.20785339 27752
SCISAT 1                
1 27858U 03036A   23117.49292938  .00001119  00000+0  15937-3 0  9991
2 27858  73.9315 283.8452 0008834 251.7010 108.3204 14.78130696 61832
