[{"OBJECT_NAME":"HST","OBJECT_ID":"1990-037B","EPOCH":"2023-04-26T16:09:36.885312","MEAN_MOTION":15.12867537,"ECCENTRICITY":0.0002505,"INCLINATION":28.4689,"RA_OF_ASC_NODE":250.6689,"ARG_OF_PERICENTER":170.2472,"MEAN_ANOMALY":211.1767,"EPHEMERIS_TYPE":0,"CLASSIFICATION_TYPE":"U","NORAD_CAT_ID":20580,"ELEMENT_SET_NO":999,"REV_AT_EPOCH":61365,"BSTAR":0.00024681,"MEAN_MOTION_DOT":4.643e-5,"MEAN_MOTION_DDOT":0},{"OBJECT_NAME":"POLAR","OBJECT_ID":"1996-013A","EPOCH":"2023-04-26T11:22:34.804416","MEAN_MOTION":1.29847045,"ECCENTRICITY":0.5764688,"INCLINATION":78.8759,"RA_OF_ASC_NODE":238.5921,"ARG_OF_PERICENTER":248.1174,"MEAN_ANOMALY":43.0482,"EPHEMERIS_TYPE":0,"CLASSIFICATION_TYPE":"U","NORAD_CAT_ID":23802,"ELEMENT_SET_NO":999,"REV_AT_EPOCH":12995,"BSTAR":0,"MEAN_MOTION_DOT":1.99e-6,"MEAN_MOTION_DDOT":0},{"OBJECT_NAME":"SWAS","OBJECT_ID":"1998-071A","EPOCH":"2023-04-26T16:27:10.646496","MEAN_MOTION":14.96589963,"ECCENTRICITY":0.0009563,"INCLINATION":69.8986,"RA_OF_ASC_NODE":276.149,"ARG_OF_PERICENTER":223.051,"MEAN_ANOMALY":136.99,"EPHEMERIS_TYPE":0,"CLASSIFICATION_TYPE":"U","NORAD_CAT_ID":25560,"ELEMENT_SET_NO":999,"REV_AT_EPOCH":32485,"BSTAR":0.00028414,"MEAN_MOTION_DOT":3.152e-5,"MEAN_MOTION_DDOT":0},{"OBJECT_NAME":"CXO","OBJECT_ID":"1999-040B","EPOCH":"2023-04-30T08:41:17.157696","MEAN_MOTION":0.37817006,"ECCENTRICITY":0.9046409,"INCLINATION":38.0806,"RA_OF_ASC_NODE":202.9706,"ARG_OF_PERICENTER":257.404,"MEAN_ANOMALY":359.8505,"EPHEMERIS_TYPE":0,"CLASSIFICATION_TYPE":"U","NORAD_CAT_ID":25867,"ELEMENT_SET_NO":999,"REV_AT_EPOCH":2415,"BSTAR":0,"MEAN_MOTION_DOT":9.47e-6,"MEAN_MOTION_DDOT":0},{"OBJECT_NAME":"XMM-NEWTON","OBJECT_ID":"1999-066A","EPOCH":"2023-04-28T14:47:49.658208","MEAN_MOTION":0.50131166,"ECCENTRICITY":0.5614369,"INCLINATION":69.2361,"RA_OF_ASC_NODE":299.2271,"ARG_OF_PERICENTER":83.0623,"MEAN_ANOMALY":359.9292,"EPHEMERIS_TYPE":0,"CLASSIFICATION_TYPE":"U","NORAD_CAT_ID":25989,"ELEMENT_SET_NO":999,"REV_AT_EPOCH":1725,"BSTAR":0,"MEAN_MOTION_DOT":-2.2e-7,"MEAN_MOTION_DDOT":0},{"OBJECT_NAME":"TERRA","OBJECT_ID":"1999-068A","EPOCH":"2023-04-27T12:44:01.920192","MEAN_MOTION":14.59188871,"ECCENTRICITY":0.000123,"INCLINATION":98.0969,"RA_OF_ASC_NODE":187.1625,"ARG_OF_PERICENTER":170.9549,"MEAN_ANOMALY":301.6091,"EPHEMERIS_TYPE":0,"CLASSIFICATION_TYPE":"U","NORAD_CAT_ID":25994,"ELEMENT_SET_NO":999,"REV_AT_EPOCH":24239,"BSTAR":0.00016356,"MEAN_MOTION_DOT":7.26e-6,"MEAN_MOTION_DDOT":0},{"OBJECT_NAME":"CLUSTER II-FM7 (SAMBA)","OBJECT_ID":"2000-041A","EPOCH":"2023-04-28T05:25:30.357120","MEAN_MOTION":0.44208584,"ECCENTRICITY":0.6403207,"INCLINATION":135.828,"RA_OF_ASC_NODE":351.2838,"ARG_OF_PERICENTER":204.982,"MEAN_ANOMALY":0.5968,"EPHEMERIS_TYPE":0,"CLASSIFICATION_TYPE":"U","NORAD_CAT_ID":26410,"ELEMENT_SET_NO":999,"REV_AT_EPOCH":2696,"BSTAR":0,"MEAN_MOTION_DOT":1.35e-6,"MEAN_MOTION_DDOT":0},{"OBJECT_NAME":"CLUSTER II-FM6 (SALSA)","OBJECT_ID":"2000-041B","EPOCH":"2023-04-25T22:58:26.651424","MEAN_MOTION":0.44222154,"ECCENTRICITY":0.8090334,"INCLINATION":140.1863,"RA_OF_ASC_NODE":358.5398,"ARG_OF_PERICENTER":212.2501,"MEAN_ANOMALY":0.763,"EPHEMERIS_TYPE":0,"CLASSIFICATION_TYPE":"U","NORAD_CAT_ID":26411,"ELEMENT_SET_NO":999,"REV_AT_EPOCH":2626,"BSTAR":0,"MEAN_MOTION_DOT":6.1e-7,"MEAN_MOTION_DDOT":0},{"OBJECT_NAME":"CLUSTER II-FM5 (RUMBA)","OBJECT_ID":"2000-045A","EPOCH":"2023-04-28T05:32:58.339392","MEAN_MOTION":0.44217927,"ECCENTRICITY":0.7591523,"INCLINATION":143.4181,"RA_OF_ASC_NODE":358.6229,"ARG_OF_PERICENTER":213.0843,"MEAN_ANOMALY":0.597,"EPHEMERIS_TYPE":0,"CLASSIFICATION_TYPE":"U","NORAD_CAT_ID":26463,"ELEMENT_SET_NO":999,"REV_AT_EPOCH":2754,"BSTAR":0,"MEAN_MOTION_DOT":2.1e-6,"MEAN_MOTION_DDOT":0},{"OBJECT_NAME":"CLUSTER II-FM8 (TANGO)","OBJECT_ID":"2000-045B","EPOCH":"2023-04-28T05:25:12.792000","MEAN_MOTION":0.44222101,"ECCENTRICITY":0.6400422,"INCLINATION":135.8219,"RA_OF_ASC_NODE":351.2776,"ARG_OF_PERICENTER":204.9771,"MEAN_ANOMALY":0.6164,"EPHEMERIS_TYPE":0,"CLASSIFICATION_TYPE":"U","NORAD_CAT_ID":26464,"ELEMENT_SET_NO":999,"REV_AT_EPOCH":6288,"BSTAR":0,"MEAN_MOTION_DOT":1.35e-6,"MEAN_MOTION_DDOT":0},{"OBJECT_NAME":"ODIN","OBJECT_ID":"2001-007A","EPOCH":"2023-04-27T11:34:19.935552","MEAN_MOTION":15.13644431,"ECCENTRICITY":0.0008061,"INCLINATION":97.5077,"RA_OF_ASC_NODE":131.8756,"ARG_OF_PERICENTER":287.88,"MEAN_ANOMALY":72.1552,"EPHEMERIS_TYPE":0,"CLASSIFICATION_TYPE":"U","NORAD_CAT_ID":26702,"ELEMENT_SET_NO":999,"REV_AT_EPOCH":21431,"BSTAR":0.00033144,"MEAN_MOTION_DOT":5.897e-5,"MEAN_MOTION_DDOT":0},{"OBJECT_NAME":"TIMED","OBJECT_ID":"2001-055B","EPOCH":"2023-04-26T20:55:57.955584","MEAN_MOTION":14.89607536,"ECCENTRICITY":0.0001931,"INCLINATION":74.0745,"RA_OF_ASC_NODE":14.912,"ARG_OF_PERICENTER":211.248,"MEAN_ANOMALY":148.8587,"EPHEMERIS_TYPE":0,"CLASSIFICATION_TYPE":"U","NORAD_CAT_ID":26998,"ELEMENT_SET_NO":999,"REV_AT_EPOCH":15965,"BSTAR":0.00020228,"MEAN_MOTION_DOT":1.895e-5,"MEAN_MOTION_DDOT":0},{"OBJECT_NAME":"INTEGRAL","OBJECT_ID":"2002-048A","EPOCH":"2023-04-26T12:26:09.881088","MEAN_MOTION":0.37572666,"ECCENTRICITY":0.8789199,"INCLINATION":82.9292,"RA_OF_ASC_NODE":41.4765,"ARG_OF_PERICENTER":292.8075,"MEAN_ANOMALY":32.1476,"EPHEMERIS_TYPE":0,"CLASSIFICATION_TYPE":"U","NORAD_CAT_ID":27540,"ELEMENT_SET_NO":999,"REV_AT_EPOCH":2232,"BSTAR":0,"MEAN_MOTION_DOT":1.81e-6,"MEAN_MOTION_DDOT":0},{"OBJECT_NAME":"CORIOLIS","OBJECT_ID":"2003-001A","EPOCH":"2023-04-27T11:08:25.487232","MEAN_MOTION":14.19248485,"ECCENTRICITY":0.0012965,"INCLINATION":98.7168,"RA_OF_ASC_NODE":126.3838,"ARG_OF_PERICENTER":274.7083,"MEAN_ANOMALY":85.2612,"EPHEMERIS_TYPE":0,"CLASSIFICATION_TYPE":"U","NORAD_CAT_ID":27640,"ELEMENT_SET_NO":999,"REV_AT_EPOCH":5148,"BSTAR":0.00010151,"MEAN_MOTION_DOT":1.69e-6,"MEAN_MOTION_DDOT":0},{"OBJECT_NAME":"SORCE","OBJECT_ID":"2003-004A","EPOCH":"2023-04-27T12:06:17.598240","MEAN_MOTION":14.91695726,"ECCENTRICITY":0.0019964,"INCLINATION":39.9937,"RA_OF_ASC_NODE":262.2351,"ARG_OF_PERICENTER":166.3708,"MEAN_ANOMALY":193.7624,"EPHEMERIS_TYPE":0,"CLASSIFICATION_TYPE":"U","NORAD_CAT_ID":27651,"ELEMENT_SET_NO":999,"REV_AT_EPOCH":9996,"BSTAR":0.00035334,"MEAN_MOTION_DOT":3.49e-5,"MEAN_MOTION_DDOT":0},{"OBJECT_NAME":"MOST","OBJECT_ID":"2003-031D","EPOCH":"2023-04-26T19:43:36.668352","MEAN_MOTION":14.20785339,"ECCENTRICITY":0.0009343,"INCLINATION":98.7086,"RA_OF_ASC_NODE":124.8355,"ARG_OF_PERICENTER":330.1667,"MEAN_ANOMALY":29.8977,"EPHEMERIS_TYPE":0,"CLASSIFICATION_TYPE":"U","NORAD_CAT_ID":27843,"ELEMENT_SET_NO":999,"REV_AT_EPOCH":2775,"BSTAR":9.1738e-5,"MEAN_MOTION_DOT":1.54e-6,"MEAN_MOTION_DDOT":0},{"OBJECT_NAME":"SCISAT 1","OBJECT_ID":"2003-036A","EPOCH":"2023-04-27T11:49:49.098432","MEAN_MOTION":14.78130696,"ECCENTRICITY":0.0008834,"INCLINATION":73.9315,"RA_OF_ASC_NODE":283.8452,"ARG_OF_PERICENTER":251.701,"MEAN_ANOMALY":108.3204,"EPHEMERIS_TYPE":0,"CLASSIFICATION_TYPE":"U","NORAD_CAT_ID":27858,"ELEMENT_SET_NO":999,"REV_AT_EPOCH":6183,"BSTAR":0.00015937,"MEAN_MOTION_DOT":1.119e-5,"MEAN_MOTION_DDOT":0}]
